{
    "addresses": [
        {
            "id": 1,
            "name": "Dallas Cummings",
            "streetAddress": "55740 Marc Inlet",
            "city": "Johnsmouth",
            "state": "Massachusetts",
            "zipCode": "93672-3151",
            "phone": "416.463.4001"
        },
        {
            "id": 2,
            "name": "Dovie Koelpin",
            "streetAddress": "3804 Michele Walks",
            "city": "Lake Keyon",
            "state": "Maryland",
            "zipCode": "44244-5625",
            "phone": "(226) 675-0409 x0899"
        },
        {
            "id": 3,
            "name": "Helena Fritsch",
            "streetAddress": "53933 Stokes Squares",
            "city": "Sparks",
            "state": "Kansas",
            "zipCode": "79830-4648",
            "phone": "329.873.7236 x845"
        },
        {
            "id": 4,
            "name": "Aisha Gibson",
            "streetAddress": "644 Ferry Wall",
            "city": "Port Tiara",
            "state": "Alaska",
            "zipCode": "94518",
            "phone": "(957) 746-3197"
        },
        {
            "id": 5,
            "name": "Arjun Douglas",
            "streetAddress": "3123 Shayna Ridges",
            "city": "Porterville",
            "state": "Wisconsin",
            "zipCode": "21641-5906",
            "phone": "(574) 594-0078"
        },
        {
            "id": 6,
            "name": "Madaline Bailey",
            "streetAddress": "55858 Hane Stream",
            "city": "Seanside",
            "state": "Connecticut",
            "zipCode": "67515",
            "phone": "1-401-495-5843"
        },
        {
            "id": 7,
            "name": "Kay Powlowski",
            "streetAddress": "025 Gladys Squares",
            "city": "Lake Lia",
            "state": "Florida",
            "zipCode": "59958",
            "phone": "(458) 924-4355 x105"
        },
        {
            "id": 8,
            "name": "Hannah Romaguera",
            "streetAddress": "609 Skyla Square",
            "city": "Bodeport",
            "state": "Indiana",
            "zipCode": "13037",
            "phone": "243-444-0574 x417"
        },
        {
            "id": 9,
            "name": "Jess Brown",
            "streetAddress": "31094 Hoeger Mountains",
            "city": "Delilahtown",
            "state": "Louisiana",
            "zipCode": "99311-6955",
            "phone": "(448) 906-6222 x53625"
        },
        {
            "id": 10,
            "name": "Adriana Von",
            "streetAddress": "48770 Russel Summit",
            "city": "North Irma",
            "state": "West Virginia",
            "zipCode": "61842",
            "phone": "1-848-747-5632 x21529"
        },
        {
            "id": 11,
            "name": "Elliott Yundt",
            "streetAddress": "8018 Murl Shores",
            "city": "Moenville",
            "state": "Hawaii",
            "zipCode": "36727-5899",
            "phone": "536.283.8436"
        },
        {
            "id": 12,
            "name": "Darrick Doyle",
            "streetAddress": "19285 Bauch Tunnel",
            "city": "East Curt",
            "state": "Ohio",
            "zipCode": "39040-0769",
            "phone": "235-398-0116"
        },
        {
            "id": 13,
            "name": "Ayana Russel",
            "streetAddress": "0166 Amalia Crossroad",
            "city": "Turnershire",
            "state": "Vermont",
            "zipCode": "74260",
            "phone": "(337) 802-7261"
        },
        {
            "id": 14,
            "name": "Willard Raynor",
            "streetAddress": "13321 Chet Loop",
            "city": "Ziemannton",
            "state": "Pennsylvania",
            "zipCode": "35177",
            "phone": "296.457.4824"
        },
        {
            "id": 15,
            "name": "Marcelino Moen",
            "streetAddress": "350 Sofia Heights",
            "city": "Koelpinberg",
            "state": "South Carolina",
            "zipCode": "98143",
            "phone": "1-783-838-7893 x28502"
        }
    ]
}